{{Infobox Planet  
| name = 607 Jenny
| image = 
| caption = 
| discovery=yes | physical_characteristics = yes | bgcolour=#FFFFC0
| discovery_ref = 
| discoverer = [[奥古斯特·科普夫|奥古斯特·科普夫]]
| discovery_site = [[海德堡|海德堡]]（[[天文台编号列表|024]]）
| discovered =  1906年9月18日
| mp_name = 607
| alt_names = 1906 VC
| named_after = Jenny Adolfine Kessler
| mp_category=[[小行星带|主带小行星]]
| orbit_ref = <ref>[http://ssd.jpl.nasa.gov/sbdb.cgi?sstr=607 607 Jenny (1906 VC)]</ref>
| epoch = 2011年8月27日
| semimajor= 2.851175721199476AU
| perihelion=2.631930834172419AU
| aphelion= 3.070420608226533[[天文单位|AU]]
| eccentricity =0.07689630821309797			
| period =1758.467731075032[[日|地球日]]<br>4.81[[年|地球年]] 
| inclination=10.11208531098741[[角度|°]]
| asc_node=285.3199620055214°
| arg_peri=289.8819299362439°
| mean_anomaly=68.8550272741398°
| avg_speed=
 | dimensions=62.78千米
 | mass=
 | density=
 | surface_grav=
 | escape_velocity=
 | rotation=8.524小时
 | spectral_type=
 | magnitude=
 | abs_magnitude=9.50
 | albedo=0.0711
 | single_temperature=
}}
'''小行星607'''（'''607 Jenny'''），是由[[德国|德国]][[天文学家|天文学家]][[奥古斯特·科普夫|奥古斯特·科普夫]]于1906年9月18日在德国[[海德堡|海德堡]]发现的[[小行星带|主带]][[小行星|小行星]]。

小行星607以奥古斯特·科普夫的朋友Jenny Adolfine Kessler命名。有趣的是，[[小行星608|小行星608]]也是以同一个人命名的。

== 参考资料 ==
{{Reflist}}

{{Minor Planet Number|(606)[[小行星606|小行星606]]|(608)[[小行星608|小行星608]]}}

[[Category:小行星带天体|Category:小行星带天体]]
[[Category:1906年发现的小行星|Category:1906年发现的小行星]]
[[Category:以人名命名的小行星|Category:以人名命名的小行星]]